{"type": "FeatureCollection", "features": [ {"type": "Feature", "properties": {"norad_id": 58662, "name": "TIANMU-1 21", "group": "weather", "lat": -4.534347806908962, "lon": 112.19033672255458, "alt_km": 477.63143473858054, "timestamp": "2025-12-24T03:53:29.285608+00:00", "meta": {"OBJECT_NAME": "TIANMU-1 21", "OBJECT_ID": "2023-208C", "EPOCH": "2025-12-23T20:04:20.396352", "MEAN_MOTION": 15.31779497, "ECCENTRICITY": 0.0006384, "INCLINATION": 97.4379, "RA_OF_ASC_NODE": 111.2697, "ARG_OF_PERICENTER": 214.1201, "MEAN_ANOMALY": 145.9631, "EPHEMERIS_TYPE": 0, "CLASSIFICATION_TYPE": "U", "NORAD_CAT_ID": 58662, "ELEMENT_SET_NO": 999, "REV_AT_EPOCH": 11069, "BSTAR": 0.00035316, "MEAN_MOTION_DOT": 0.00010768, "MEAN_MOTION_DDOT": 0}, "tle": {"line1": "1 58662U 23208C   25357.83634718  .00010768  00000+0  35316-3 0  9996", "line2": "2 58662  97.4379 111.2697 0006384 214.1201 145.9631 15.31779497110696"}}, "geometry": {"type": "Point", "coordinates": [112.19033672255458, -4.534347806908962]}}, {"type": "Feature", "properties": {"norad_id": 58663, "name": "TIANMU-1 22", "group": "weather", "lat": 64.2619989699783, "lon": -55.04306883887018, "alt_km": 476.98189594328596, "timestamp": "2025-12-24T03:53:29.285629+00:00", "meta": {"OBJECT_NAME": "TIANMU-1 22", "OBJECT_ID": "2023-208D", "EPOCH": "2025-12-23T21:06:12.467808", "MEAN_MOTION": 15.27784218, "ECCENTRICITY": 0.0002907, "INCLINATION": 97.4387, "RA_OF_ASC_NODE": 108.9496, "ARG_OF_PERICENTER": 229.2402, "MEAN_ANOMALY": 130.8586, "EPHEMERIS_TYPE": 0, "CLASSIFICATION_TYPE": "U", "NORAD_CAT_ID": 58663, "ELEMENT_SET_NO": 999, "REV_AT_EPOCH": 11053, "BSTAR": 0.00031438, "MEAN_MOTION_DOT": 8.459e-05, "MEAN_MOTION_DDOT": 0}, "tle": {"line1": "1 58663U 23208D   25357.87931097  .00008459  00000+0  31438-3 0  9996", "line2": "2 58663  97.4387 108.9496 0002907 229.2402 130.8586 15.27784218110530"}}, "geometry": {"type": "Point", "coordinates": [-55.04306883887018, 64.2619989699783]}}, {"type": "Feature", "properties": {"norad_id": 58700, "name": "TIANMU-1 15", "group": "weather", "lat": 66.55336666907428, "lon": 17.180464401120833, "alt_km": 488.304038307876, "timestamp": "2025-12-24T03:53:29.285651+00:00", "meta": {"OBJECT_NAME": "TIANMU-1 15", "OBJECT_ID": "2024-004A", "EPOCH": "2025-12-23T21:05:57.745248", "MEAN_MOTION": 15.2454804, "ECCENTRICITY": 0.0006031, "INCLINATION": 97.4626, "RA_OF_ASC_NODE": 179.3068, "ARG_OF_PERICENTER": 242.7408, "MEAN_ANOMALY": 117.3216, "EPHEMERIS_TYPE": 0, "CLASSIFICATION_TYPE": "U", "NORAD_CAT_ID": 58700, "ELEMENT_SET_NO": 999, "REV_AT_EPOCH": 10904, "BSTAR": 0.00027797, "MEAN_MOTION_DOT": 6.775e-05, "MEAN_MOTION_DDOT": 0}, "tle": {"line1": "1 58700U 24004A   25357.87914057  .00006775  00000+0  27797-3 0  9992", "line2": "2 58700  97.4626 179.3068 0006031 242.7408 117.3216 15.24548040109045"}}, "geometry": {"type": "Point", "coordinates": [17.180464401120833, 66.55336666907428]}}, {"type": "Feature", "properties": {"norad_id": 58701, "name": "TIANMU-1 16", "group": "weather", "lat": -14.872639184366221, "lon": -3.0250502995195827, "alt_km": 494.89356952208254, "timestamp": "2025-12-24T03:53:29.285667+00:00", "meta": {"OBJECT_NAME": "TIANMU-1 16", "OBJECT_ID": "2024-004B", "EPOCH": "2025-12-23T20:44:17.035584", "MEAN_MOTION": 15.24575586, "ECCENTRICITY": 0.0004379, "INCLINATION": 97.4566, "RA_OF_ASC_NODE": 178.6716, "ARG_OF_PERICENTER": 245.3588, "MEAN_ANOMALY": 114.7193, "EPHEMERIS_TYPE": 0, "CLASSIFICATION_TYPE": "U", "NORAD_CAT_ID": 58701, "ELEMENT_SET_NO": 999, "REV_AT_EPOCH": 10904, "BSTAR": 0.00030479, "MEAN_MOTION_DOT": 7.44e-05, "MEAN_MOTION_DDOT": 0}, "tle": {"line1": "1 58701U 24004B   25357.86408606  .00007440  00000+0  30479-3 0  9991", "line2": "2 58701  97.4566 178.6716 0004379 245.3588 114.7193 15.24575586109042"}}, "geometry": {"type": "Point", "coordinates": [-3.0250502995195827, -14.872639184366221]}}, {"type": "Feature", "properties": {"norad_id": 58702, "name": "TIANMU-1 17", "group": "weather", "lat": -76.55880828236558, "lon": -147.36712822708046, "alt_km": 497.2878667865425, "timestamp": "2025-12-24T03:53:29.285684+00:00", "meta": {"OBJECT_NAME": "TIANMU-1 17", "OBJECT_ID": "2024-004C", "EPOCH": "2025-12-23T20:21:38.621088", "MEAN_MOTION": 15.24618949, "ECCENTRICITY": 0.0003548, "INCLINATION": 97.46, "RA_OF_ASC_NODE": 179.0717, "ARG_OF_PERICENTER": 246.4302, "MEAN_ANOMALY": 113.6563, "EPHEMERIS_TYPE": 0, "CLASSIFICATION_TYPE": "U", "NORAD_CAT_ID": 58702, "ELEMENT_SET_NO": 999, "REV_AT_EPOCH": 10903, "BSTAR": 0.00030034, "MEAN_MOTION_DOT": 7.34e-05, "MEAN_MOTION_DDOT": 0}, "tle": {"line1": "1 58702U 24004C   25357.84836367  .00007340  00000+0  30034-3 0  9995", "line2": "2 58702  97.4600 179.0717 0003548 246.4302 113.6563 15.24618949109030"}}, "geometry": {"type": "Point", "coordinates": [-147.36712822708046, -76.55880828236558]}}, {"type": "Feature", "properties": {"norad_id": 58703, "name": "TIANMU-1 18", "group": "weather", "lat": 11.935968673156037, "lon": 177.99430929201287, "alt_km": 494.66456017096607, "timestamp": "2025-12-24T03:53:29.285703+00:00", "meta": {"OBJECT_NAME": "TIANMU-1 18", "OBJECT_ID": "2024-004D", "EPOCH": "2025-12-23T19:57:46.274112", "MEAN_MOTION": 15.24602136, "ECCENTRICITY": 0.0002921, "INCLINATION": 97.4617, "RA_OF_ASC_NODE": 179.2529, "ARG_OF_PERICENTER": 243.457, "MEAN_ANOMALY": 116.6368, "EPHEMERIS_TYPE": 0, "CLASSIFICATION_TYPE": "U", "NORAD_CAT_ID": 58703, "ELEMENT_SET_NO": 999, "REV_AT_EPOCH": 10903, "BSTAR": 0.00026673, "MEAN_MOTION_DOT": 6.506e-05, "MEAN_MOTION_DDOT": 0}, "tle": {"line1": "1 58703U 24004D   25357.83178558  .00006506  00000+0  26673-3 0  9993", "line2": "2 58703  97.4617 179.2529 0002921 243.4570 116.6368 15.24602136109037"}}, "geometry": {"type": "Point", "coordinates": [177.99430929201287, 11.935968673156037]}}, {"type": "Feature", "properties": {"norad_id": 58990, "name": "INSAT-3DS", "group": "weather", "lat": 0.02535214618137196, "lon": -126.59314253355237, "alt_km": 35782.40442951751, "timestamp": "2025-12-24T03:53:29.285721+00:00", "meta": {"OBJECT_NAME": "INSAT-3DS", "OBJECT_ID": "2024-033A", "EPOCH": "2025-12-23T19:16:08.177088", "MEAN_MOTION": 1.00271525, "ECCENTRICITY": 0.0001189, "INCLINATION": 0.0578, "RA_OF_ASC_NODE": 100.0953, "ARG_OF_PERICENTER": 174.9514, "MEAN_ANOMALY": 188.6839, "EPHEMERIS_TYPE": 0, "CLASSIFICATION_TYPE": "U", "NORAD_CAT_ID": 58990, "ELEMENT_SET_NO": 999, "REV_AT_EPOCH": 4531, "BSTAR": 0, "MEAN_MOTION_DOT": -1.35e-06, "MEAN_MOTION_DDOT": 0}, "tle": {"line1": "1 58990U 24033A   25357.80287242 -.00000135  00000+0  00000+0 0  9996", "line2": "2 58990   0.0578 100.0953 0001189 174.9514 188.6839  1.00271525 45310"}}, "geometry": {"type": "Point", "coordinates": [-126.59314253355237, 0.02535214618137196]}}, {"type": "Feature", "properties": {"norad_id": 59051, "name": "METEOR-M2 4", "group": "weather", "lat": -45.29621283367065, "lon": -36.22996746755746, "alt_km": 819.3596427192006, "timestamp": "2025-12-24T03:53:29.285738+00:00", "meta": {"OBJECT_NAME": "METEOR-M2 4", "OBJECT_ID": "2024-039A", "EPOCH": "2025-12-23T21:21:14.308416", "MEAN_MOTION": 14.22402897, "ECCENTRICITY": 0.0006456, "INCLINATION": 98.6783, "RA_OF_ASC_NODE": 314.6246, "ARG_OF_PERICENTER": 325.1363, "MEAN_ANOMALY": 34.9391, "EPHEMERIS_TYPE": 0, "CLASSIFICATION_TYPE": "U", "NORAD_CAT_ID": 59051, "ELEMENT_SET_NO": 999, "REV_AT_EPOCH": 9434, "BSTAR": 3.5735e-05, "MEAN_MOTION_DOT": 3.6e-07, "MEAN_MOTION_DDOT": 0}, "tle": {"line1": "1 59051U 24039A   25357.88974894  .00000036  00000+0  35735-4 0  9992", "line2": "2 59051  98.6783 314.6246 0006456 325.1363  34.9391 14.22402897 94341"}}, "geometry": {"type": "Point", "coordinates": [-36.22996746755746, -45.29621283367065]}}, {"type": "Feature", "properties": {"norad_id": 60133, "name": "GOES 19", "group": "weather", "lat": -0.0026328070375889884, "lon": 76.13483409317541, "alt_km": 35787.78973818909, "timestamp": "2025-12-24T03:53:29.285806+00:00", "meta": {"OBJECT_NAME": "GOES 19", "OBJECT_ID": "2024-119A", "EPOCH": "2025-12-23T12:46:25.910112", "MEAN_MOTION": 1.0027184, "ECCENTRICITY": 0.0001012, "INCLINATION": 0.0202, "RA_OF_ASC_NODE": 184.8401, "ARG_OF_PERICENTER": 138.5806, "MEAN_ANOMALY": 245.325, "EPHEMERIS_TYPE": 0, "CLASSIFICATION_TYPE": "U", "NORAD_CAT_ID": 60133, "ELEMENT_SET_NO": 999, "REV_AT_EPOCH": 520, "BSTAR": 0, "MEAN_MOTION_DOT": -2.27e-06, "MEAN_MOTION_DDOT": 0}, "tle": {"line1": "1 60133U 24119A   25357.53224433 -.00000227  00000+0  00000+0 0  9998", "line2": "2 60133   0.0202 184.8401 0001012 138.5806 245.3250  1.00271840  5201"}}, "geometry": {"type": "Point", "coordinates": [76.13483409317541, -0.0026328070375889884]}}, {"type": "Feature", "properties": {"norad_id": 65815, "name": "FENGYUN 3H", "group": "weather", "lat": 81.31937383611626, "lon": -155.91126448687518, "alt_km": 817.6533498449189, "timestamp": "2025-12-24T03:53:29.285831+00:00", "meta": {"OBJECT_NAME": "FENGYUN 3H", "OBJECT_ID": "2025-219A", "EPOCH": "2025-12-23T19:00:38.901888", "MEAN_MOTION": 14.19907493, "ECCENTRICITY": 7.95e-05, "INCLINATION": 98.66, "RA_OF_ASC_NODE": 297.1432, "ARG_OF_PERICENTER": 107.9519, "MEAN_ANOMALY": 252.1744, "EPHEMERIS_TYPE": 0, "CLASSIFICATION_TYPE": "U", "NORAD_CAT_ID": 65815, "ELEMENT_SET_NO": 999, "REV_AT_EPOCH": 1249, "BSTAR": 6.4922e-05, "MEAN_MOTION_DOT": 9.5e-07, "MEAN_MOTION_DDOT": 0}, "tle": {"line1": "1 65815U 25219A   25357.79211692  .00000095  00000+0  64922-4 0  9993", "line2": "2 65815  98.6600 297.1432 0000795 107.9519 252.1744 14.19907493 12495"}}, "geometry": {"type": "Point", "coordinates": [-155.91126448687518, 81.31937383611626]}}]}